ONEWEB-0056             
1 45159U 20008AE  26202.26206902  .00000097  00000+0  24270-3 0  9996
2 45159  87.8829  29.4711 0002025  83.3107 276.8250 13.10375889312644
ONEWEB-0057             
1 45160U 20008AF  26202.05025838  .00000638  00000+0  17910-2 0  9995
2 45160  87.8824  29.5241 0001401  78.1251 282.0033 13.10372586312783
ONEWEB-0058             
1 45161U 20008AG  26201.96036110 -.00006873  00000+0 -19710-1 0  9998
2 45161  87.8797  29.5478 0001384 108.6258 251.5020 13.10480639312844
ONEWEB-0059             
1 45162U 20008AH  26202.03329503  .00000158  00000+0  41651-3 0  9998
2 45162  87.8821  29.5314 0001543  90.4221 269.7083 13.10377086312758
ONEWEB-0062             
1 45163U 20008AJ  26202.05677178  .00000453  00000+0  12603-2 0  9997
2 45163  87.8822  29.5165 0002159  95.2103 264.9270 13.10370899312626
ONEWEB-0065             
1 45164U 20008AK  26202.01431557 -.00000620  00000+0 -18122-2 0  9993
2 45164  87.8823  29.5331 0001725  78.6361 281.4960 13.10372702312313
ONEWEB-0066             
1 45424U 20020A   26202.17502869 -.00000205  00000+0 -61443-3 0  9992
2 45424  87.8884  14.3024 0001788  96.1788 263.9544 13.11415206307132
ONEWEB-0067             
1 45425U 20020B   26201.98383602 -.00000203  00000+0 -60842-3 0  9993
2 45425  87.8912  14.2691 0001687  87.9151 272.2170 13.11427077307164
ONEWEB-0080             
1 45426U 20020C   26202.21250470 -.00000295  00000+0 -86932-3 0  9996
2 45426  87.8902  14.2950 0002133  97.0721 263.0650 13.11418258307166
ONEWEB-0090             
1 45427U 20020D   26202.24132652  .00000492  00000+0  13526-2 0  9996
2 45427  87.8900  14.2934 0001908  92.6889 267.4458 13.11416335307137
ONEWEB-0061             
1 45428U 20020E   26202.04435598 -.00000511  00000+0 -14783-2 0  9990
2 45428  87.8897  14.3164 0001818  93.4951 266.6385 13.11416898307064
ONEWEB-0081             
1 45429U 20020F   26202.17844928  .00000065  00000+0  14684-3 0  9999
2 45429  87.8892  14.2992 0001629  92.9788 267.1527 13.11415071307190
ONEWEB-0069             
1 45430U 20020G   26202.02767541 -.00000056  00000+0 -19274-3 0  9992
2 45430  87.8894  14.3326 0001645  96.1550 263.9766 13.11416521307108
ONEWEB-0031             
1 45431U 20020H   26201.98686793 -.00000059  00000+0 -20171-3 0  9997
2 45431  87.8886  14.3432 0002007  93.4655 266.6703 13.11420177307087
ONEWEB-0027             
1 45432U 20020J   26202.12855549  .00000110  00000+0  25062-3 0  9992
2 45432  87.9155 359.1136 0002220  90.2173 269.9213 13.17648978310821
ONEWEB-0064             
1 45433U 20020K   26201.98516338 -.00000141  00000+0 -43226-3 0  9994
2 45433  87.8892  14.3369 0002025  91.5630 268.5730 13.11417920307114
