{"fetched_at":"2026-07-21T17:53:05.430Z","source":"https://celestrak.org/NORAD/elements/gp.php?GROUP=oneweb&FORMAT=JSON","constellation":"oneweb","records":[{"OBJECT_NAME":"ONEWEB-0056","OBJECT_ID":"2020-008AE","EPOCH":"2026-07-21T06:17:22.763328","CLASSIFICATION_TYPE":"U","MEAN_MOTION":13.10375889,"ECCENTRICITY":0.00020259,"INCLINATION":87.8829,"RA_OF_ASC_NODE":29.4711,"ARG_OF_PERICENTER":83.3107,"MEAN_ANOMALY":276.825,"EPHEMERIS_TYPE":0,"NORAD_CAT_ID":45159,"ELEMENT_SET_NO":999,"REV_AT_EPOCH":31264,"BSTAR":0.00024270353,"MEAN_MOTION_DOT":9.7e-7,"MEAN_MOTION_DDOT":0},{"OBJECT_NAME":"ONEWEB-0057","OBJECT_ID":"2020-008AF","EPOCH":"2026-07-21T01:12:22.324032","CLASSIFICATION_TYPE":"U","MEAN_MOTION":13.10372586,"ECCENTRICITY":0.00014015,"INCLINATION":87.8824,"RA_OF_ASC_NODE":29.5241,"ARG_OF_PERICENTER":78.1251,"MEAN_ANOMALY":282.0033,"EPHEMERIS_TYPE":0,"NORAD_CAT_ID":45160,"ELEMENT_SET_NO":999,"REV_AT_EPOCH":31278,"BSTAR":0.0017909917,"MEAN_MOTION_DOT":0.00000638,"MEAN_MOTION_DDOT":0},{"OBJECT_NAME":"ONEWEB-0058","OBJECT_ID":"2020-008AG","EPOCH":"2026-07-20T23:02:55.199040","CLASSIFICATION_TYPE":"U","MEAN_MOTION":13.10480639,"ECCENTRICITY":0.00013841,"INCLINATION":87.8797,"RA_OF_ASC_NODE":29.5478,"ARG_OF_PERICENTER":108.6258,"MEAN_ANOMALY":251.502,"EPHEMERIS_TYPE":0,"NORAD_CAT_ID":45161,"ELEMENT_SET_NO":999,"REV_AT_EPOCH":31284,"BSTAR":-0.019710057,"MEAN_MOTION_DOT":-0.00006873,"MEAN_MOTION_DDOT":0},{"OBJECT_NAME":"ONEWEB-0059","OBJECT_ID":"2020-008AH","EPOCH":"2026-07-21T00:47:56.690592","CLASSIFICATION_TYPE":"U","MEAN_MOTION":13.10377086,"ECCENTRICITY":0.00015438,"INCLINATION":87.8821,"RA_OF_ASC_NODE":29.5314,"ARG_OF_PERICENTER":90.4221,"MEAN_ANOMALY":269.7083,"EPHEMERIS_TYPE":0,"NORAD_CAT_ID":45162,"ELEMENT_SET_NO":999,"REV_AT_EPOCH":31275,"BSTAR":0.00041651251,"MEAN_MOTION_DOT":0.00000158,"MEAN_MOTION_DDOT":0},{"OBJECT_NAME":"ONEWEB-0062","OBJECT_ID":"2020-008AJ","EPOCH":"2026-07-21T01:21:45.081792","CLASSIFICATION_TYPE":"U","MEAN_MOTION":13.10370899,"ECCENTRICITY":0.00021598,"INCLINATION":87.8822,"RA_OF_ASC_NODE":29.5165,"ARG_OF_PERICENTER":95.2103,"MEAN_ANOMALY":264.927,"EPHEMERIS_TYPE":0,"NORAD_CAT_ID":45163,"ELEMENT_SET_NO":999,"REV_AT_EPOCH":31262,"BSTAR":0.0012602766,"MEAN_MOTION_DOT":0.00000453,"MEAN_MOTION_DDOT":0},{"OBJECT_NAME":"ONEWEB-0065","OBJECT_ID":"2020-008AK","EPOCH":"2026-07-21T00:20:36.865248","CLASSIFICATION_TYPE":"U","MEAN_MOTION":13.10372702,"ECCENTRICITY":0.00017254,"INCLINATION":87.8823,"RA_OF_ASC_NODE":29.5331,"ARG_OF_PERICENTER":78.6361,"MEAN_ANOMALY":281.496,"EPHEMERIS_TYPE":0,"NORAD_CAT_ID":45164,"ELEMENT_SET_NO":999,"REV_AT_EPOCH":31231,"BSTAR":-0.0018122018,"MEAN_MOTION_DOT":-0.0000062,"MEAN_MOTION_DDOT":0},{"OBJECT_NAME":"ONEWEB-0066","OBJECT_ID":"2020-020A","EPOCH":"2026-07-21T04:12:02.478816","CLASSIFICATION_TYPE":"U","MEAN_MOTION":13.11415206,"ECCENTRICITY":0.00017889,"INCLINATION":87.8884,"RA_OF_ASC_NODE":14.3024,"ARG_OF_PERICENTER":96.1788,"MEAN_ANOMALY":263.9544,"EPHEMERIS_TYPE":0,"NORAD_CAT_ID":45424,"ELEMENT_SET_NO":999,"REV_AT_EPOCH":30713,"BSTAR":-0.00061442983,"MEAN_MOTION_DOT":-0.00000205,"MEAN_MOTION_DDOT":0},{"OBJECT_NAME":"ONEWEB-0067","OBJECT_ID":"2020-020B","EPOCH":"2026-07-20T23:36:43.432128","CLASSIFICATION_TYPE":"U","MEAN_MOTION":13.11427077,"ECCENTRICITY":0.00016873,"INCLINATION":87.8912,"RA_OF_ASC_NODE":14.2691,"ARG_OF_PERICENTER":87.9151,"MEAN_ANOMALY":272.217,"EPHEMERIS_TYPE":0,"NORAD_CAT_ID":45425,"ELEMENT_SET_NO":999,"REV_AT_EPOCH":30716,"BSTAR":-0.00060842377,"MEAN_MOTION_DOT":-0.00000203,"MEAN_MOTION_DDOT":0},{"OBJECT_NAME":"ONEWEB-0080","OBJECT_ID":"2020-020C","EPOCH":"2026-07-21T05:06:00.406080","CLASSIFICATION_TYPE":"U","MEAN_MOTION":13.11418258,"ECCENTRICITY":0.00021335,"INCLINATION":87.8902,"RA_OF_ASC_NODE":14.295,"ARG_OF_PERICENTER":97.0721,"MEAN_ANOMALY":263.065,"EPHEMERIS_TYPE":0,"NORAD_CAT_ID":45426,"ELEMENT_SET_NO":999,"REV_AT_EPOCH":30716,"BSTAR":-0.00086932255,"MEAN_MOTION_DOT":-0.00000295,"MEAN_MOTION_DDOT":0},{"OBJECT_NAME":"ONEWEB-0090","OBJECT_ID":"2020-020D","EPOCH":"2026-07-21T05:47:30.611328","CLASSIFICATION_TYPE":"U","MEAN_MOTION":13.11416335,"ECCENTRICITY":0.00019083,"INCLINATION":87.89,"RA_OF_ASC_NODE":14.2934,"ARG_OF_PERICENTER":92.6889,"MEAN_ANOMALY":267.4458,"EPHEMERIS_TYPE":0,"NORAD_CAT_ID":45427,"ELEMENT_SET_NO":999,"REV_AT_EPOCH":30713,"BSTAR":0.001352646,"MEAN_MOTION_DOT":0.00000492,"MEAN_MOTION_DDOT":0},{"OBJECT_NAME":"ONEWEB-0061","OBJECT_ID":"2020-020E","EPOCH":"2026-07-21T01:03:52.356672","CLASSIFICATION_TYPE":"U","MEAN_MOTION":13.11416898,"ECCENTRICITY":0.00018187,"INCLINATION":87.8897,"RA_OF_ASC_NODE":14.3164,"ARG_OF_PERICENTER":93.4951,"MEAN_ANOMALY":266.6385,"EPHEMERIS_TYPE":0,"NORAD_CAT_ID":45428,"ELEMENT_SET_NO":999,"REV_AT_EPOCH":30706,"BSTAR":-0.0014782798,"MEAN_MOTION_DOT":-0.00000511,"MEAN_MOTION_DDOT":0},{"OBJECT_NAME":"ONEWEB-0081","OBJECT_ID":"2020-020F","EPOCH":"2026-07-21T04:16:58.017792","CLASSIFICATION_TYPE":"U","MEAN_MOTION":13.11415071,"ECCENTRICITY":0.00016295,"INCLINATION":87.8892,"RA_OF_ASC_NODE":14.2992,"ARG_OF_PERICENTER":92.9788,"MEAN_ANOMALY":267.1527,"EPHEMERIS_TYPE":0,"NORAD_CAT_ID":45429,"ELEMENT_SET_NO":999,"REV_AT_EPOCH":30719,"BSTAR":0.00014684311,"MEAN_MOTION_DOT":6.5e-7,"MEAN_MOTION_DDOT":0},{"OBJECT_NAME":"ONEWEB-0069","OBJECT_ID":"2020-020G","EPOCH":"2026-07-21T00:39:51.155424","CLASSIFICATION_TYPE":"U","MEAN_MOTION":13.11416521,"ECCENTRICITY":0.00016456,"INCLINATION":87.8894,"RA_OF_ASC_NODE":14.3326,"ARG_OF_PERICENTER":96.155,"MEAN_ANOMALY":263.9766,"EPHEMERIS_TYPE":0,"NORAD_CAT_ID":45430,"ELEMENT_SET_NO":999,"REV_AT_EPOCH":30710,"BSTAR":-0.00019274154,"MEAN_MOTION_DOT":-5.6e-7,"MEAN_MOTION_DDOT":0},{"OBJECT_NAME":"ONEWEB-0031","OBJECT_ID":"2020-020H","EPOCH":"2026-07-20T23:41:05.389152","CLASSIFICATION_TYPE":"U","MEAN_MOTION":13.11420177,"ECCENTRICITY":0.00020079,"INCLINATION":87.8886,"RA_OF_ASC_NODE":14.3432,"ARG_OF_PERICENTER":93.4655,"MEAN_ANOMALY":266.6703,"EPHEMERIS_TYPE":0,"NORAD_CAT_ID":45431,"ELEMENT_SET_NO":999,"REV_AT_EPOCH":30708,"BSTAR":-0.00020170855,"MEAN_MOTION_DOT":-5.9e-7,"MEAN_MOTION_DDOT":0},{"OBJECT_NAME":"ONEWEB-0027","OBJECT_ID":"2020-020J","EPOCH":"2026-07-21T03:05:07.194336","CLASSIFICATION_TYPE":"U","MEAN_MOTION":13.17648978,"ECCENTRICITY":0.00022204,"INCLINATION":87.9155,"RA_OF_ASC_NODE":359.1136,"ARG_OF_PERICENTER":90.2173,"MEAN_ANOMALY":269.9213,"EPHEMERIS_TYPE":0,"NORAD_CAT_ID":45432,"ELEMENT_SET_NO":999,"REV_AT_EPOCH":31082,"BSTAR":0.00025062322,"MEAN_MOTION_DOT":0.0000011,"MEAN_MOTION_DDOT":0},{"OBJECT_NAME":"ONEWEB-0064","OBJECT_ID":"2020-020K","EPOCH":"2026-07-20T23:38:38.116032","CLASSIFICATION_TYPE":"U","MEAN_MOTION":13.1141792,"ECCENTRICITY":0.00020259,"INCLINATION":87.8892,"RA_OF_ASC_NODE":14.3369,"ARG_OF_PERICENTER":91.563,"MEAN_ANOMALY":268.573,"EPHEMERIS_TYPE":0,"NORAD_CAT_ID":45433,"ELEMENT_SET_NO":999,"REV_AT_EPOCH":30711,"BSTAR":-0.00043226011,"MEAN_MOTION_DOT":-0.00000141,"MEAN_MOTION_DDOT":0}]}
